STARLINK-5800           
1 56041U 23042BH  26068.17213104  .00000755  00000+0  70952-4 0  9991
2 56041  43.0063  32.7480 0001763 270.3709  89.6932 15.02540416163132
ADRAS-J                 
1 58992U 24034A   26068.91589465  .00004016  00000+0  21471-3 0  9993
2 58992  98.2230  88.3954 0075813  99.4078 261.5731 15.13266815112352
